FENGYUN 3C              
1 39260U 13052A   24206.89415205  .00000264  00000+0  15404-3 0  9997
2 39260  98.4296 204.5036 0010294 212.9763 147.0771 14.16236089560666
METEOR-M 2              
1 40069U 14037A   24206.77213660  .00000388  00000+0  19807-3 0  9996
2 40069  98.4379 199.3333 0004580 244.4564 115.6141 14.21003063520969
HIMAWARI-8              
1 40267U 14060A   24206.55689248 -.00000278  00000+0  00000+0 0  9997
2 40267   0.0133 201.2659 0001121 307.4998 135.1432  1.00267438 35815
FENGYUN 2G              
1 40367U 14090A   24206.63204892 -.00000305  00000+0  00000+0 0  9999
2 40367   3.8833  81.1176 0002870 136.6748  52.0956  1.00275431 35056
METEOSAT-11 (MSG-4)     
1 40732U 15034A   24206.29545698  .00000061  00000+0  00000+0 0  9996
2 40732   1.4727  69.8737 0001417 162.2953 185.9277  1.00274383   276
ELEKTRO-L 2             
1 41105U 15074A   24206.43385951 -.00000119  00000+0  00000+0 0  9990
2 41105   4.9337  79.0319 0001411 143.9908 221.2941  1.00272116 31565
INSAT-3DR               
1 41752U 16054A   24206.52297119 -.00000078  00000+0  00000+0 0  9999
2 41752   0.1002  92.4697 0010533 171.5522 300.9476  1.00270891 28878
HIMAWARI-9              
1 41836U 16064A   24206.55686168 -.00000277  00000+0  00000+0 0  9993
2 41836   0.0388 206.5060 0001027 281.5369 155.9401  1.00271370 28260
GOES 16                 
1 41866U 16071A   24206.42176334 -.00000249  00000+0  00000+0 0  9998
2 41866   0.0861 257.3203 0000440 219.3813 262.5532  1.00271505 28151
FENGYUN 4A              
1 41882U 16077A   24206.53445603 -.00000198  00000+0  00000+0 0  9995
2 41882   0.5493  86.1231 0008185 346.2068 149.2707  1.00265654 27983
CYGFM05                 
1 41884U 16078A   24206.01061745  .00014470  00000+0  51836-3 0  9996
2 41884  34.9589  67.8094 0010633 180.1238 179.9476 15.27855341421714
CYGFM04                 
1 41885U 16078B   24206.62925077  .00012375  00000+0  43145-3 0  9997
2 41885  34.9377  47.5823 0008722 212.9846 147.0326 15.28778593421905
CYGFM02                 
1 41886U 16078C   24206.58069538  .00012649  00000+0  43611-3 0  9996
2 41886  34.9489  50.0661 0011250 198.0775 161.9542 15.29113652422056
CYGFM01                 
1 41887U 16078D   24206.06308974  .00014498  00000+0  52259-3 0  9992
2 41887  34.9475  71.3708 0010556 168.2782 191.8180 15.27653577421653
CYGFM08                 
1 41888U 16078E   24205.99291594  .00014405  00000+0  50450-3 0  9992
2 41888  34.9472  59.6518 0011515 193.2095 166.8320 15.28582451421820
CYGFM07                 
1 41890U 16078G   24206.61541056  .00012969  00000+0  45008-3 0  9992
2 41890  34.9494  47.0415 0008532 210.5158 149.5062 15.28923343421912
CYGFM03                 
1 41891U 16078H   24205.99944410  .00014747  00000+0  51299-3 0  9999
2 41891  34.9502  52.1849 0009283 188.0225 172.0344 15.28822911421800
FENGYUN 3D              
1 43010U 17072A   24206.80877658  .00000277  00000+0  15349-3 0  9998
2 43010  98.9124 161.6884 0000835 180.1102 180.0074 14.19376790346758
NOAA 20 (JPSS-1)        
1 43013U 17073A   24206.83961992  .00000218  00000+0  12392-3 0  9990
2 43013  98.7064 144.1313 0002296 101.5325 258.6109 14.19548042346248
GOES 17                 
1 43226U 18022A   24206.52190139 -.00000092  00000+0  00000+0 0  9994
2 43226   0.0083 297.1031 0001413 226.8347 221.9555  1.00271124 23477
FENGYUN 2H              
1 43491U 18050A   24206.53184315 -.00000128  00000+0  00000+0 0  9999
2 43491   1.2380  87.1026 0001106  59.4960  66.4286  1.00277153 22497
METOP-C                 
1 43689U 18087A   24206.72894398  .00000333  00000+0  17240-3 0  9993
2 43689  98.7217 265.5630 0001711  20.5139 339.6106 14.21473406296459
GEO-KOMPSAT-2A          
1 43823U 18100A   24205.73060157 -.00000345  00000+0  00000+0 0  9993
2 43823   0.0273 119.4497 0002207 347.3884 226.3711  1.00269334 20672
METEOR-M2 2             
1 44387U 19038A   24206.88509223  .00000143  00000+0  82237-4 0  9991
2 44387  98.8290 176.2617 0001095 154.4847 205.6386 14.23905319262751
ARKTIKA-M 1             
1 47719U 21016A   24206.13913032  .00000145  00000+0  00000+0 0  9992
2 47719  63.1364 147.5271 6954578 268.6340  17.8658  2.00603033 24887
FENGYUN 3E              
1 49008U 21062A   24206.76910342  .00000098  00000+0  66946-4 0  9999
2 49008  98.7330 207.5445 0000532 320.3482  39.7655 14.19766777158321
GOES 18                 
1 51850U 22021A   24206.40949315  .00000096  00000+0  00000+0 0  9998
2 51850   0.0085 148.4563 0000463 336.4071 188.1514  1.00270852   241
NOAA 21 (JPSS-2)        
1 54234U 22150A   24206.52291889  .00000245  00000+0  13709-3 0  9999
2 54234  98.7518 143.9805 0001795  66.4011 293.7354 14.19534126 88272
METEOSAT-12 (MTG-I1)    
1 54743U 22170C   24206.34271160 -.00000010  00000+0  00000+0 0  9993
2 54743   0.5511  44.2980 0002146  71.7356 309.3908  1.00270927  6035
TIANMU-1 03             
1 55973U 23039A   24206.83875436  .00011680  00000+0  49452-3 0  9996
2 55973  97.4728 357.2507 0005694  56.9647 303.2136 15.23318055 74583
TIANMU-1 04             
1 55974U 23039B   24206.82025109  .00011469  00000+0  48403-3 0  9990
2 55974  97.4651 356.7588 0006759  52.4986 307.6864 15.23425190 74576
TIANMU-1 05             
1 55975U 23039C   24206.87153930  .00011209  00000+0  47468-3 0  9992
2 55975  97.4699 357.1567 0005629  73.4947 286.6907 15.23320438 74579
TIANMU-1 06             
1 55976U 23039D   24206.85113769  .00011451  00000+0  48180-3 0  9998
2 55976  97.4712 357.2701 0006074  71.0005 289.1889 15.23532789 74572
METEOR-M2 3             
1 57166U 23091A   24206.85001424  .00000075  00000+0  52033-4 0  9996
2 57166  98.7107 261.1819 0004483  35.6403 324.5074 14.23906987 55988
TIANMU-1 07             
1 57399U 23101A   24206.81536088  .00007760  00000+0  38783-3 0  9994
2 57399  97.3604 262.9205 0006331  68.8371 291.3539 15.17707588 56132
TIANMU-1 08             
1 57400U 23101B   24206.85039068  .00008202  00000+0  40941-3 0  9998
2 57400  97.3591 262.8229 0008540  70.0651 290.1502 15.17718228 56135
TIANMU-1 09             
1 57401U 23101C   24206.83359667  .00008772  00000+0  43759-3 0  9999
2 57401  97.3547 262.6263 0008882  66.1764 294.0400 15.17716781 56135
TIANMU-1 10             
1 57402U 23101D   24206.80025062  .00007694  00000+0  38427-3 0  9994
2 57402  97.3627 262.9076 0011012  63.6024 296.6339 15.17697948 56121
FENGYUN 3F              
1 57490U 23111A   24206.79202658  .00000235  00000+0  13186-3 0  9997
2 57490  98.7682 275.5745 0001119  52.1703 307.9574 14.19842307 50607
ARKTIKA-M 2             
1 58584U 23198A   24201.38500750  .00000179  00000+0  00000+0 0  9995
2 58584  63.2530 231.8200 6972451 269.8139  17.3146  2.00605843  4317
TIANMU-1 11             
1 58645U 23205A   24206.82438593  .00007566  00000+0  40128-3 0  9997
2 58645  97.4015 230.9512 0009485 272.5719  87.4428 15.15603170 32217
TIANMU-1 12             
1 58646U 23205B   24206.83881942  .00007063  00000+0  37439-3 0  9992
2 58646  97.3999 230.8918 0008031 262.8004  97.2316 15.15657470 32208
TIANMU-1 13             
1 58647U 23205C   24206.87294218  .00007672  00000+0  40722-3 0  9996
2 58647  97.4032 230.9304 0008126 242.8018 117.2387 15.15579499 32201
TIANMU-1 14             
1 58648U 23205D   24206.85679354  .00007017  00000+0  37269-3 0  9998
2 58648  97.3957 230.7428 0008705 247.2442 112.7871 15.15584973 32206
TIANMU-1 19             
1 58660U 23208A   24206.79704740  .00009560  00000+0  50501-3 0  9995
2 58660  97.4143 318.2671 0008295 228.3746 131.6777 15.15681602 31864
TIANMU-1 20             
1 58661U 23208B   24206.84697844  .00008937  00000+0  46195-3 0  9999
2 58661  97.4073 318.2987 0008842 239.4127 120.6234 15.16467781 31880
TIANMU-1 21             
1 58662U 23208C   24206.81732830  .00009089  00000+0  45739-3 0  9994
2 58662  97.4109 318.5988 0008552 239.2328 120.8064 15.17407367 31893
TIANMU-1 22             
1 58663U 23208D   24206.81423922  .00007983  00000+0  42319-3 0  9996
2 58663  97.4128 318.3509 0004043 249.2400 110.8400 15.15635154 31871
TIANMU-1 15             
1 58700U 24004A   24206.85568461  .00008237  00000+0  43719-3 0  9993
2 58700  97.4633  27.2753 0008534 283.6224  76.4058 15.15561630 30474
TIANMU-1 16             
1 58701U 24004B   24206.83769348  .00007834  00000+0  41554-3 0  9996
2 58701  97.4562  27.1037 0008477 290.6740  69.3584 15.15600084 30479
TIANMU-1 17             
1 58702U 24004C   24206.82324828  .00007331  00000+0  38953-3 0  9997
2 58702  97.4604  27.2387 0006255 284.7600  75.2939 15.15573264 30465
TIANMU-1 18             
1 58703U 24004D   24206.80586037  .00007276  00000+0  38651-3 0  9991
2 58703  97.4618  27.3025 0005544 272.4898  87.5700 15.15591047 30465
INSAT-3DS               
1 58990U 24033A   24206.38153385 -.00000157  00000+0  00000+0 0  9995
2 58990   0.0175  58.1154 0002299  58.5636  45.3317  1.00270910 40125
METEOR-M2 4             
1 59051U 24039A   24206.84323166  .00000125  00000+0  75869-4 0  9991
2 59051  98.5997 167.8140 0007574  24.5726 335.5812 14.22241896 20845
GOES 19                 
1 60133U 24119A   24206.56202122 -.00000183  00000+0  00000+0 0  9995
2 60133   0.0969 250.7472 0003718 197.8616 326.9024  1.00272426    14
GOES 19                 
1 60133U 24119A   24206.56202122 -.00000183  00000+0  00000+0 0  9995
2 60133   0.0969 250.7472 0003718 197.8616 326.9024  1.00272426    14
FALCON HEAVY R/B        
1 60134U 24119B   24205.85967801 -.00000086  00000+0  00000+0 0  9991
2 60134   4.3866  94.3718 3014250 181.7699 176.6764  1.51715634   438
STARLINK-32043          
1 60135U 24120A   24206.83334491 -.01563071  00000+0 -28953-1 0  9995
2 60135  53.1608 204.0768 0001081  88.9615 166.6486 15.51367593  5326
